NORAD_CAT_ID,OBJECT_NAME,OBJECT_TYPE,EPOCH,MEAN_MOTION,ECCENTRICITY,INCLINATION,RA_OF_ASC_NODE,ARG_OF_PERICENTER,MEAN_ANOMALY,BSTAR,MEAN_MOTION_DOT,MEAN_MOTION_DDOT,TLE_LINE0,TLE_LINE1,TLE_LINE2,SEMIMAJOR_AXIS,PERIOD,APOGEE,PERIGEE,DECAYED
55395.0,STARLINK-5274,PAYLOAD,2023-04-06 12:00:02,15.69947546,0.000371,70.0001,267.4546,270.0062,200.2046,-0.00010322,-0.00012619,0.0,0 STARLINK-5274,1 55395U 23014E   23096.50002315 -.00012619  00000-0 -10322-3 0  9995,2 55395  70.0001 267.4546 0003710 270.0062 200.2046 15.69947546 10370,6737.184,91.723,361.549,356.55,0.0
55395.0,STARLINK-5274,PAYLOAD,2023-04-06 14:00:01,15.69964651,0.0003769,70.0002,267.2203,271.2695,309.7761,-0.00043286,-0.00052031,0.0,0 STARLINK-5274,1 55395U 23014E   23096.58335648 -.00052031  00000-0 -43286-3 0  9998,2 55395  70.0002 267.2203 0003769 271.2695 309.7761 15.69964651  1306,6737.135,91.722,361.539,356.461,0.0
55395.0,STARLINK-5274,PAYLOAD,2023-04-06 22:00:00,15.69919674,0.0003774,70.0001,266.283,276.2396,28.1094,-1.5531e-05,-2.08e-05,0.0,0 STARLINK-5274,1 55395U 23014E   23096.91667824 -.00002080  00000-0 -15531-4 0  9991,2 55395  70.0001 266.2830 0003774 276.2396  28.1094 15.69919674  1305,6737.264,91.724,361.671,356.586,0.0
55395.0,STARLINK-5274,PAYLOAD,2023-04-07 13:31:44,15.69924028,0.0003777,69.9982,264.4655,270.867,89.2093,1.3865e-06,-4.6e-07,0.0,0 STARLINK-5274,1 55395U 23014E   23097.56371080 -.00000046  00000-0  13865-5 0  9997,2 55395  69.9982 264.4655 0003777 270.8670  89.2093 15.69924028 11489,6737.251,91.724,361.661,356.572,0.0
55395.0,STARLINK-5274,PAYLOAD,2023-04-08 12:28:01,15.69928691,0.0003607,69.9995,261.7768,267.6354,92.4429,1.04e-05,1.038e-05,0.0,0 STARLINK-5274,1 55395U 23014E   23098.51946138  .00001038  00000-0  10400-4 0  9997,2 55395  69.9995 261.7768 0003607 267.6354  92.4429 15.69928691 11639,6737.238,91.724,361.533,356.673,0.0
55395.0,STARLINK-5274,PAYLOAD,2023-04-08 17:03:16,15.6993758,0.0003676,69.999,261.2405,269.485,90.5924,2.7055e-05,3.043e-05,0.0,0 STARLINK-5274,1 55395U 23014E   23098.71060685  .00003043  00000-0  27055-4 0  9995,2 55395  69.9990 261.2405 0003676 269.4850  90.5924 15.69937580 10729,6737.213,91.723,361.554,356.601,0.0
55395.0,STARLINK-5274,PAYLOAD,2023-04-09 03:45:32,15.69922454,0.0003603,69.9984,259.9862,272.4847,87.5937,1.4118e-06,-4.3e-07,0.0,0 STARLINK-5274,1 55395U 23014E   23099.15663170 -.00000043  00000-0  14118-5 0  9997,2 55395  69.9984 259.9862 0003603 272.4847  87.5937 15.69922454 10794,6737.256,91.724,361.548,356.693,0.0
55395.0,STARLINK-5274,PAYLOAD,2023-04-09 11:24:18,15.69925036,0.0003802,69.9976,259.0902,269.8769,90.1991,1.9539e-05,2.137e-05,0.0,0 STARLINK-5274,1 55395U 23014E   23099.47521368  .00002137  00000-0  19539-4 0  9990,2 55395  69.9976 259.0902 0003802 269.8769  90.1991 15.69925036 11784,6737.248,91.724,361.675,356.552,0.0
55395.0,STARLINK-5274,PAYLOAD,2023-04-09 12:56:03,15.69926754,0.0003896,69.9995,258.9116,268.5193,91.5556,2.0355e-05,2.236e-05,0.0,0 STARLINK-5274,1 55395U 23014E   23099.53892943  .00002236  00000-0  20355-4 0  9995,2 55395  69.9995 258.9116 0003896 268.5193  91.5556 15.69926754 11791,6737.244,91.724,361.733,356.484,0.0
55395.0,STARLINK-5274,PAYLOAD,2023-04-10 04:13:35,15.69912945,0.0003273,70.0012,257.1192,271.486,88.5961,-1.5161e-05,-2.034e-05,0.0,0 STARLINK-5274,1 55395U 23014E   23100.17610378 -.00002034  00000-0 -15161-4 0  9995,2 55395  70.0012 257.1192 0003273 271.4860  88.5961 15.69912945 10952,6737.283,91.725,361.353,356.943,0.0
55395.0,STARLINK-5274,PAYLOAD,2023-04-10 10:20:35,15.69919952,0.0003935,70.0008,256.405,275.46,84.6147,-9.5519e-06,-1.361e-05,0.0,0 STARLINK-5274,1 55395U 23014E   23100.43096699 -.00001361  00000-0 -95519-5 0  9996,2 55395  70.0008 256.4050 0003935 275.4600  84.6147 15.69919952 11930,6737.263,91.724,361.779,356.477,0.0
55395.0,STARLINK-5274,PAYLOAD,2023-04-10 16:27:35,15.69950454,0.0003017,69.9994,255.6856,275.0674,85.0177,6.5872e-05,7.723e-05,0.0,0 STARLINK-5274,1 55395U 23014E   23100.68582229  .00007723  00000-0  65872-4 0  9996,2 55395  69.9994 255.6856 0003017 275.0674  85.0177 15.69950454 11035,6737.176,91.723,361.073,357.008,0.0
55395.0,STARLINK-5274,PAYLOAD,2023-04-10 21:02:50,15.69942561,0.0004028,70.0003,255.1493,273.0872,86.9863,5.1519e-05,5.992e-05,0.0,0 STARLINK-5274,1 55395U 23014E   23100.87697452  .00005992  00000-0  51519-4 0  9991,2 55395  70.0003 255.1493 0004028 273.0872  86.9863 15.69942561 12002,6737.198,91.723,361.777,356.35,0.0
55395.0,STARLINK-5274,PAYLOAD,2023-04-11 03:09:51,15.69914478,0.000574,69.9992,254.4354,265.2462,94.8078,-1.8249e-05,-2.408e-05,0.0,0 STARLINK-5274,1 55395U 23014E   23101.13184505 -.00002408  00000-0 -18249-4 0  9995,2 55395  69.9992 254.4354 0005740 265.2462  94.8078 15.69914478 11106,6737.279,91.725,363.011,355.276,0.0
55395.0,STARLINK-5274,PAYLOAD,2023-04-11 13:52:07,15.69922968,0.0003551,70.0002,253.1777,275.3031,84.776,2.1369e-05,2.357e-05,0.0,0 STARLINK-5274,1 55395U 23014E   23101.57786904  .00002357  00000-0  21369-4 0  9992,2 55395  70.0002 253.1777 0003551 275.3031  84.7760 15.69922968 12119,6737.254,91.724,361.512,356.727,0.0
55395.0,STARLINK-5274,PAYLOAD,2023-04-12 03:37:53,15.69937549,0.0003606,69.9995,251.5657,272.6942,87.3841,8.6478e-05,0.00010204,0.0,0 STARLINK-5274,1 55395U 23014E   23102.15131613  .00010204  00000-0  86478-4 0  9990,2 55395  69.9995 251.5657 0003606 272.6942  87.3841 15.69937549 11263,6737.213,91.723,361.507,356.648,0.0
55395.0,STARLINK-5274,PAYLOAD,2023-04-12 11:16:39,15.69932646,0.0003328,69.9983,250.6696,271.053,89.0284,7.5118e-05,8.832e-05,0.0,0 STARLINK-5274,1 55395U 23014E   23102.46990137  .00008832  00000-0  75118-4 0  9991,2 55395  69.9983 250.6696 0003328 271.0530  89.0284 15.69932646 12253,6737.227,91.724,361.334,356.85,0.0
55395.0,STARLINK-5274,PAYLOAD,2023-04-12 15:51:54,15.69939276,0.0004198,70.0009,250.1332,272.2755,87.796,8.0485e-05,9.483e-05,0.0,0 STARLINK-5274,1 55395U 23014E   23102.66104705  .00009483  00000-0  80485-4 0  9997,2 55395  70.0009 250.1332 0004198 272.2755  87.7960 15.69939276 11346,6737.208,91.723,361.901,356.244,0.0
55395.0,STARLINK-5274,PAYLOAD,2023-04-13 10:12:56,15.69925581,0.0003614,69.9992,247.983,275.8187,84.2597,2.1566e-05,2.381e-05,0.0,0 STARLINK-5274,1 55395U 23014E   23103.42565138  .00002381  00000-0  21566-4 0  9998,2 55395  69.9992 247.9830 0003614 275.8187  84.2597 15.69925581 12401,6737.247,91.724,361.547,356.677,0.0
55395.0,STARLINK-5274,PAYLOAD,2023-04-13 16:19:56,15.69934472,0.0003659,69.9992,247.266,272.8349,87.2428,3.9106e-05,4.494e-05,0.0,0 STARLINK-5274,1 55395U 23014E   23103.68051562  .00004494  00000-0  39106-4 0  9993,2 55395  69.9992 247.2660 0003659 272.8349  87.2428 15.69934472 11506,6737.221,91.724,361.552,356.621,0.0
55395.0,STARLINK-5274,PAYLOAD,2023-04-14 12:12:43,15.69919681,0.0003791,69.9995,244.938,270.0087,90.0674,2.1467e-06,4.5e-07,0.0,0 STARLINK-5274,1 55395U 23014E   23104.50883582  .00000045  00000-0  21467-5 0  9990,2 55395  69.9995 244.9380 0003791 270.0087  90.0674 15.69919681 11632,6737.264,91.724,361.683,356.575,0.0
55395.0,STARLINK-5274,PAYLOAD,2023-04-15 12:40:45,15.6991389,0.0003548,70.0004,242.0719,269.3676,90.7113,-1.1263e-05,-1.566e-05,0.0,0 STARLINK-5274,1 55395U 23014E   23105.52830565 -.00001566  00000-0 -11263-4 0  9999,2 55395  70.0004 242.0719 0003548 269.3676  90.7113 15.69913890 11794,6737.28,91.725,361.536,356.755,0.0
55395.0,STARLINK-5274,PAYLOAD,2023-04-15 18:47:46,15.69932544,0.0003237,70.0007,241.3565,254.6734,105.4104,6.249e-05,7.31e-05,0.0,0 STARLINK-5274,1 55395U 23014E   23105.78317148  .00007310  00000-0  62490-4 0  9993,2 55395  70.0007 241.3565 0003237 254.6734 105.4104 15.69932544 11831,6737.227,91.724,361.273,356.911,0.0
55395.0,STARLINK-5274,PAYLOAD,2023-04-16 11:37:02,15.699279,0.0002845,70.0001,239.3839,256.628,103.4599,2.2951e-05,2.548e-05,0.0,0 STARLINK-5274,1 55395U 23014E   23106.48405647  .00002548  00000-0  22951-4 0  9999,2 55395  70.0001 239.3839 0002845 256.6280 103.4599 15.69927900 11946,6737.24,91.724,361.022,357.189,0.0
55395.0,STARLINK-5274,PAYLOAD,2023-04-16 17:44:02,15.69935967,0.0002808,70.0018,238.6699,255.711,104.3775,6.3387e-05,7.419e-05,0.0,0 STARLINK-5274,1 55395U 23014E   23106.73892185  .00007419  00000-0  63387-4 0  9994,2 55395  70.0018 238.6699 0002808 255.7110 104.3775 15.69935967 12928,6737.217,91.723,360.974,357.19,0.0
55395.0,STARLINK-5274,PAYLOAD,2023-04-17 12:05:04,15.69930266,0.0003044,70.0014,236.5183,261.7944,98.2907,6.7211e-05,7.878e-05,0.0,0 STARLINK-5274,1 55395U 23014E   23107.50352340  .00007878  00000-0  67211-4 0  9993,2 55395  70.0014 236.5183 0003044 261.7944  98.2907 15.69930266 12109,6737.234,91.724,361.149,357.048,0.0
55395.0,STARLINK-5274,PAYLOAD,2023-04-17 18:12:04,15.69932665,0.0002914,70.0011,235.8015,259.7274,100.3594,6.1164e-05,7.15e-05,0.0,0 STARLINK-5274,1 55395U 23014E   23107.75838935  .00007150  00000-0  61164-4 0  9993,2 55395  70.0011 235.8015 0002914 259.7274 100.3594 15.69932665 13080,6737.227,91.724,361.055,357.128,0.0
55395.0,STARLINK-5274,PAYLOAD,2023-04-18 01:50:50,15.69922968,0.0002594,70.0014,234.9062,265.134,94.956,1.6951e-05,1.826e-05,0.0,0 STARLINK-5274,1 55395U 23014E   23108.07697619  .00001826  00000-0  16951-4 0  9999,2 55395  70.0014 234.9062 0002594 265.1340  94.9560 15.69922968 12191,6737.254,91.724,360.867,357.372,0.0
55395.0,STARLINK-5274,PAYLOAD,2023-04-18 09:29:36,15.69923723,0.0002731,70.0008,234.0117,264.8643,95.2241,1.6265e-05,1.744e-05,0.0,0 STARLINK-5274,1 55395U 23014E   23108.39556074  .00001744  00000-0  16265-4 0  9990,2 55395  70.0008 234.0117 0002731 264.8643  95.2241 15.69923723 13181,6737.252,91.724,360.957,357.277,0.0
55395.0,STARLINK-5274,PAYLOAD,2023-04-18 17:08:22,15.6992489,0.0002745,70.0011,233.116,265.567,94.5212,1.5519e-05,1.654e-05,0.0,0 STARLINK-5274,1 55395U 23014E   23108.71414469  .00001654  00000-0  15519-4 0  9998,2 55395  70.0011 233.1160 0002745 265.5670  94.5212 15.69924890 13238,6737.249,91.724,360.963,357.265,0.0
